[{"OBJECT_NAME":"NINGXIA-1 7","OBJECT_ID":"2021-064B","EPOCH":"2023-09-08T01:37:01.483392","MEAN_MOTION":14.08163811,"ECCENTRICITY":0.0006638,"INCLINATION":45.0031,"RA_OF_ASC_NODE":122.887,"ARG_OF_PERICENTER":68.363,"MEAN_ANOMALY":291.7913,"EPHEMERIS_TYPE":0,"CLASSIFICATION_TYPE":"U","NORAD_CAT_ID":49019,"ELEMENT_SET_NO":999,"REV_AT_EPOCH":11142,"BSTAR":1.9402e-5,"MEAN_MOTION_DOT":-9.9e-7,"MEAN_MOTION_DDOT":0},{"OBJECT_NAME":"NINGXIA-1 8","OBJECT_ID":"2021-064C","EPOCH":"2023-09-08T01:19:22.256544","MEAN_MOTION":14.0818803,"ECCENTRICITY":0.0007529,"INCLINATION":44.9949,"RA_OF_ASC_NODE":122.3051,"ARG_OF_PERICENTER":73.9086,"MEAN_ANOMALY":286.2579,"EPHEMERIS_TYPE":0,"CLASSIFICATION_TYPE":"U","NORAD_CAT_ID":49020,"ELEMENT_SET_NO":999,"REV_AT_EPOCH":11142,"BSTAR":0.00010304,"MEAN_MOTION_DOT":4.5e-7,"MEAN_MOTION_DDOT":0},{"OBJECT_NAME":"NINGXIA-1 9","OBJECT_ID":"2021-064D","EPOCH":"2023-09-08T00:59:23.454816","MEAN_MOTION":14.08176738,"ECCENTRICITY":0.0007884,"INCLINATION":45.0028,"RA_OF_ASC_NODE":122.7092,"ARG_OF_PERICENTER":82.9142,"MEAN_ANOMALY":277.2591,"EPHEMERIS_TYPE":0,"CLASSIFICATION_TYPE":"U","NORAD_CAT_ID":49021,"ELEMENT_SET_NO":999,"REV_AT_EPOCH":11142,"BSTAR":0.00010567,"MEAN_MOTION_DOT":5.0e-7,"MEAN_MOTION_DDOT":0},{"OBJECT_NAME":"NINGXIA-1 10","OBJECT_ID":"2021-064E","EPOCH":"2023-09-08T02:19:47.954784","MEAN_MOTION":14.08184775,"ECCENTRICITY":0.0007564,"INCLINATION":45,"RA_OF_ASC_NODE":122.1261,"ARG_OF_PERICENTER":91.6906,"MEAN_ANOMALY":268.4797,"EPHEMERIS_TYPE":0,"CLASSIFICATION_TYPE":"U","NORAD_CAT_ID":49022,"ELEMENT_SET_NO":999,"REV_AT_EPOCH":11143,"BSTAR":8.798e-5,"MEAN_MOTION_DOT":1.9e-7,"MEAN_MOTION_DDOT":0},{"OBJECT_NAME":"YAOGAN-30 AD","OBJECT_ID":"2021-065A","EPOCH":"2023-09-08T02:35:31.195680","MEAN_MOTION":14.92818718,"ECCENTRICITY":0.0006074,"INCLINATION":34.9937,"RA_OF_ASC_NODE":283.5735,"ARG_OF_PERICENTER":348.4673,"MEAN_ANOMALY":11.5893,"EPHEMERIS_TYPE":0,"CLASSIFICATION_TYPE":"U","NORAD_CAT_ID":49026,"ELEMENT_SET_NO":999,"REV_AT_EPOCH":11663,"BSTAR":0.0002769,"MEAN_MOTION_DOT":2.894e-5,"MEAN_MOTION_DDOT":0},{"OBJECT_NAME":"TIANQI-15","OBJECT_ID":"2021-065B","EPOCH":"2023-09-08T02:55:41.130912","MEAN_MOTION":14.95019239,"ECCENTRICITY":0.0007812,"INCLINATION":35.0015,"RA_OF_ASC_NODE":272.0175,"ARG_OF_PERICENTER":179.9067,"MEAN_ANOMALY":180.1641,"EPHEMERIS_TYPE":0,"CLASSIFICATION_TYPE":"U","NORAD_CAT_ID":49027,"ELEMENT_SET_NO":999,"REV_AT_EPOCH":11677,"BSTAR":0.0003776,"MEAN_MOTION_DOT":4.187e-5,"MEAN_MOTION_DDOT":0},{"OBJECT_NAME":"YAOGAN-30 AE","OBJECT_ID":"2021-065C","EPOCH":"2023-09-08T03:40:28.430976","MEAN_MOTION":14.92809492,"ECCENTRICITY":8.48e-5,"INCLINATION":34.9937,"RA_OF_ASC_NODE":283.0016,"ARG_OF_PERICENTER":270.4377,"MEAN_ANOMALY":89.6231,"EPHEMERIS_TYPE":0,"CLASSIFICATION_TYPE":"U","NORAD_CAT_ID":49028,"ELEMENT_SET_NO":999,"REV_AT_EPOCH":11662,"BSTAR":0.0002753,"MEAN_MOTION_DOT":2.876e-5,"MEAN_MOTION_DDOT":0},{"OBJECT_NAME":"YAOGAN-30 AF","OBJECT_ID":"2021-065D","EPOCH":"2023-09-08T03:08:10.454784","MEAN_MOTION":14.92826999,"ECCENTRICITY":0.0004201,"INCLINATION":34.9949,"RA_OF_ASC_NODE":282.8891,"ARG_OF_PERICENTER":97.5787,"MEAN_ANOMALY":262.5395,"EPHEMERIS_TYPE":0,"CLASSIFICATION_TYPE":"U","NORAD_CAT_ID":49029,"ELEMENT_SET_NO":999,"REV_AT_EPOCH":11665,"BSTAR":0.00026873,"MEAN_MOTION_DOT":2.808e-5,"MEAN_MOTION_DDOT":0},{"OBJECT_NAME":"ISS (NAUKA)","OBJECT_ID":"2021-066A","EPOCH":"2023-09-07T13:06:19.755936","MEAN_MOTION":15.50278646,"ECCENTRICITY":0.0005852,"INCLINATION":51.6415,"RA_OF_ASC_NODE":280.5283,"ARG_OF_PERICENTER":40.5829,"MEAN_ANOMALY":119.1724,"EPHEMERIS_TYPE":0,"CLASSIFICATION_TYPE":"U","NORAD_CAT_ID":49044,"ELEMENT_SET_NO":999,"REV_AT_EPOCH":41456,"BSTAR":0.00019312,"MEAN_MOTION_DOT":0.00010692,"MEAN_MOTION_DDOT":0},{"OBJECT_NAME":"TIANHUI 1-04","OBJECT_ID":"2021-067A","EPOCH":"2023-09-08T02:11:28.929120","MEAN_MOTION":15.23321364,"ECCENTRICITY":0.0002416,"INCLINATION":97.3948,"RA_OF_ASC_NODE":325.8222,"ARG_OF_PERICENTER":114.845,"MEAN_ANOMALY":245.3039,"EPHEMERIS_TYPE":0,"CLASSIFICATION_TYPE":"U","NORAD_CAT_ID":49049,"ELEMENT_SET_NO":999,"REV_AT_EPOCH":11735,"BSTAR":0.00037371,"MEAN_MOTION_DOT":8.805e-5,"MEAN_MOTION_DDOT":0},{"OBJECT_NAME":"MONOLITH","OBJECT_ID":"2021-068A","EPOCH":"2023-09-07T18:22:50.074176","MEAN_MOTION":14.92136374,"ECCENTRICITY":0.0006875,"INCLINATION":37.0192,"RA_OF_ASC_NODE":144.293,"ARG_OF_PERICENTER":270.9998,"MEAN_ANOMALY":88.9955,"EPHEMERIS_TYPE":0,"CLASSIFICATION_TYPE":"U","NORAD_CAT_ID":49052,"ELEMENT_SET_NO":999,"REV_AT_EPOCH":11496,"BSTAR":0.00048126,"MEAN_MOTION_DOT":4.913e-5,"MEAN_MOTION_DDOT":0},{"OBJECT_NAME":"STAR ONE D2","OBJECT_ID":"2021-069A","EPOCH":"2023-09-07T18:25:06.954240","MEAN_MOTION":1.00270751,"ECCENTRICITY":0.0002799,"INCLINATION":0.014,"RA_OF_ASC_NODE":154.1177,"ARG_OF_PERICENTER":13.7366,"MEAN_ANOMALY":25.0116,"EPHEMERIS_TYPE":0,"CLASSIFICATION_TYPE":"U","NORAD_CAT_ID":49055,"ELEMENT_SET_NO":999,"REV_AT_EPOCH":777,"BSTAR":0,"MEAN_MOTION_DOT":-2.76e-6,"MEAN_MOTION_DDOT":0},{"OBJECT_NAME":"EUTELSAT QUANTUM","OBJECT_ID":"2021-069B","EPOCH":"2023-09-07T21:27:42.583104","MEAN_MOTION":1.0027083,"ECCENTRICITY":0.000198,"INCLINATION":0.0058,"RA_OF_ASC_NODE":20.9311,"ARG_OF_PERICENTER":163.8469,"MEAN_ANOMALY":171.5535,"EPHEMERIS_TYPE":0,"CLASSIFICATION_TYPE":"U","NORAD_CAT_ID":49056,"ELEMENT_SET_NO":999,"REV_AT_EPOCH":776,"BSTAR":0,"MEAN_MOTION_DOT":1.14e-6,"MEAN_MOTION_DDOT":0},{"OBJECT_NAME":"KL-BETA A","OBJECT_ID":"2021-070A","EPOCH":"2023-09-08T00:32:28.688928","MEAN_MOTION":13.9644864,"ECCENTRICITY":0.0008072,"INCLINATION":89.0004,"RA_OF_ASC_NODE":329.9286,"ARG_OF_PERICENTER":47.2253,"MEAN_ANOMALY":312.9602,"EPHEMERIS_TYPE":0,"CLASSIFICATION_TYPE":"U","NORAD_CAT_ID":49059,"ELEMENT_SET_NO":999,"REV_AT_EPOCH":10670,"BSTAR":8.8264e-5,"MEAN_MOTION_DOT":1.35e-6,"MEAN_MOTION_DDOT":0},{"OBJECT_NAME":"KL-BETA B","OBJECT_ID":"2021-070B","EPOCH":"2023-09-08T00:30:46.180512","MEAN_MOTION":13.96447526,"ECCENTRICITY":0.000662,"INCLINATION":89.0001,"RA_OF_ASC_NODE":329.9066,"ARG_OF_PERICENTER":57.3435,"MEAN_ANOMALY":302.838,"EPHEMERIS_TYPE":0,"CLASSIFICATION_TYPE":"U","NORAD_CAT_ID":49060,"ELEMENT_SET_NO":999,"REV_AT_EPOCH":10671,"BSTAR":8.3406e-5,"MEAN_MOTION_DOT":1.29e-6,"MEAN_MOTION_DDOT":0},{"OBJECT_NAME":"CHINASAT 2E (ZX 2E)","OBJECT_ID":"2021-071A","EPOCH":"2023-09-08T02:34:42.536928","MEAN_MOTION":1.00271359,"ECCENTRICITY":0.0001952,"INCLINATION":0.0549,"RA_OF_ASC_NODE":307.8491,"ARG_OF_PERICENTER":338.1489,"MEAN_ANOMALY":197.6491,"EPHEMERIS_TYPE":0,"CLASSIFICATION_TYPE":"U","NORAD_CAT_ID":49062,"ELEMENT_SET_NO":999,"REV_AT_EPOCH":788,"BSTAR":0,"MEAN_MOTION_DOT":-3.03e-6,"MEAN_MOTION_DDOT":0},{"OBJECT_NAME":"BRO-4","OBJECT_ID":"2021-073A","EPOCH":"2023-09-08T02:56:27.024000","MEAN_MOTION":15.19094786,"ECCENTRICITY":0.0024215,"INCLINATION":97.4808,"RA_OF_ASC_NODE":322.8706,"ARG_OF_PERICENTER":173.9983,"MEAN_ANOMALY":186.1547,"EPHEMERIS_TYPE":0,"CLASSIFICATION_TYPE":"U","NORAD_CAT_ID":49066,"ELEMENT_SET_NO":999,"REV_AT_EPOCH":11361,"BSTAR":0.00073583,"MEAN_MOTION_DOT":0.00015509,"MEAN_MOTION_DDOT":0},{"OBJECT_NAME":"RADCUBE","OBJECT_ID":"2021-073B","EPOCH":"2023-09-07T05:11:21.527232","MEAN_MOTION":15.23950984,"ECCENTRICITY":0.0020207,"INCLINATION":97.4765,"RA_OF_ASC_NODE":322.7241,"ARG_OF_PERICENTER":182.4762,"MEAN_ANOMALY":177.6379,"EPHEMERIS_TYPE":0,"CLASSIFICATION_TYPE":"U","NORAD_CAT_ID":49067,"ELEMENT_SET_NO":999,"REV_AT_EPOCH":11351,"BSTAR":0.00097465,"MEAN_MOTION_DOT":0.00023688,"MEAN_MOTION_DDOT":0},{"OBJECT_NAME":"SUNSTORM","OBJECT_ID":"2021-073C","EPOCH":"2023-09-08T03:09:50.861088","MEAN_MOTION":15.22929094,"ECCENTRICITY":0.002052,"INCLINATION":97.4791,"RA_OF_ASC_NODE":323.3088,"ARG_OF_PERICENTER":180.5551,"MEAN_ANOMALY":179.5666,"EPHEMERIS_TYPE":0,"CLASSIFICATION_TYPE":"U","NORAD_CAT_ID":49068,"ELEMENT_SET_NO":999,"REV_AT_EPOCH":11362,"BSTAR":0.0011048,"MEAN_MOTION_DOT":0.00026071,"MEAN_MOTION_DDOT":0},{"OBJECT_NAME":"LEDSAT","OBJECT_ID":"2021-073D","EPOCH":"2023-09-08T03:35:25.210176","MEAN_MOTION":15.15631146,"ECCENTRICITY":0.0023313,"INCLINATION":97.4759,"RA_OF_ASC_NODE":320.6756,"ARG_OF_PERICENTER":189.8804,"MEAN_ANOMALY":170.1973,"EPHEMERIS_TYPE":0,"CLASSIFICATION_TYPE":"U","NORAD_CAT_ID":49069,"ELEMENT_SET_NO":999,"REV_AT_EPOCH":11346,"BSTAR":0.00061766,"MEAN_MOTION_DOT":0.00011762,"MEAN_MOTION_DDOT":0},{"OBJECT_NAME":"PLEIADES NEO 4","OBJECT_ID":"2021-073E","EPOCH":"2023-09-08T02:20:05.786880","MEAN_MOTION":14.81678317,"ECCENTRICITY":0.0001202,"INCLINATION":97.8949,"RA_OF_ASC_NODE":324.3963,"ARG_OF_PERICENTER":105.638,"MEAN_ANOMALY":254.4965,"EPHEMERIS_TYPE":0,"CLASSIFICATION_TYPE":"U","NORAD_CAT_ID":49070,"ELEMENT_SET_NO":999,"REV_AT_EPOCH":11135,"BSTAR":0.00015609,"MEAN_MOTION_DOT":1.177e-5,"MEAN_MOTION_DDOT":0},{"OBJECT_NAME":"TIANHUI 2-02A","OBJECT_ID":"2021-074A","EPOCH":"2023-09-08T01:26:57.985440","MEAN_MOTION":15.16748689,"ECCENTRICITY":0.0001745,"INCLINATION":97.4648,"RA_OF_ASC_NODE":252.834,"ARG_OF_PERICENTER":102.7292,"MEAN_ANOMALY":257.4136,"EPHEMERIS_TYPE":0,"CLASSIFICATION_TYPE":"U","NORAD_CAT_ID":49071,"ELEMENT_SET_NO":999,"REV_AT_EPOCH":11371,"BSTAR":0.00014118,"MEAN_MOTION_DOT":2.703e-5,"MEAN_MOTION_DDOT":0},{"OBJECT_NAME":"TIANHUI 2-02B","OBJECT_ID":"2021-074B","EPOCH":"2023-09-08T01:26:58.039008","MEAN_MOTION":15.16748738,"ECCENTRICITY":0.0001961,"INCLINATION":97.4647,"RA_OF_ASC_NODE":252.8297,"ARG_OF_PERICENTER":87.8608,"MEAN_ANOMALY":272.285,"EPHEMERIS_TYPE":0,"CLASSIFICATION_TYPE":"U","NORAD_CAT_ID":49072,"ELEMENT_SET_NO":999,"REV_AT_EPOCH":11370,"BSTAR":0.00014245,"MEAN_MOTION_DOT":2.728e-5,"MEAN_MOTION_DDOT":0},{"OBJECT_NAME":"ONEWEB-0285","OBJECT_ID":"2021-075A","EPOCH":"2023-09-07T08:06:31.646592","MEAN_MOTION":13.12442718,"ECCENTRICITY":0.0002119,"INCLINATION":87.9055,"RA_OF_ASC_NODE":192.1963,"ARG_OF_PERICENTER":78.0086,"MEAN_ANOMALY":282.128,"EPHEMERIS_TYPE":0,"CLASSIFICATION_TYPE":"U","NORAD_CAT_ID":49075,"ELEMENT_SET_NO":999,"REV_AT_EPOCH":10222,"BSTAR":-0.00071227,"MEAN_MOTION_DOT":-2.44e-6,"MEAN_MOTION_DDOT":0}]
